[{"OBJECT_NAME":"SL-8 R/B","OBJECT_ID":"1991-006B","EPOCH":"2026-04-04T06:23:38.712192","MEAN_MOTION":13.77498663,"ECCENTRICITY":0.00214566,"INCLINATION":82.9435,"RA_OF_ASC_NODE":151.0296,"ARG_OF_PERICENTER":326.6148,"MEAN_ANOMALY":101.4186,"EPHEMERIS_TYPE":0,"CLASSIFICATION_TYPE":"U","NORAD_CAT_ID":21088,"ELEMENT_SET_NO":999,"REV_AT_EPOCH":76759,"BSTAR":0.00011667908,"MEAN_MOTION_DOT":1.31e-6,"MEAN_MOTION_DDOT":0},{"OBJECT_NAME":"OKEAN-3","OBJECT_ID":"1991-039A","EPOCH":"2026-04-04T01:53:46.387104","MEAN_MOTION":15.0496502,"ECCENTRICITY":0.00128033,"INCLINATION":82.5148,"RA_OF_ASC_NODE":312.2412,"ARG_OF_PERICENTER":243.0253,"MEAN_ANOMALY":116.9666,"EPHEMERIS_TYPE":0,"CLASSIFICATION_TYPE":"U","NORAD_CAT_ID":21397,"ELEMENT_SET_NO":999,"REV_AT_EPOCH":86885,"BSTAR":0.00039806291,"MEAN_MOTION_DOT":5.678e-5,"MEAN_MOTION_DDOT":0},{"OBJECT_NAME":"COSMOS 2151","OBJECT_ID":"1991-042A","EPOCH":"2026-04-04T05:31:06.629376","MEAN_MOTION":15.00225779,"ECCENTRICITY":0.00117499,"INCLINATION":82.496,"RA_OF_ASC_NODE":59.032,"ARG_OF_PERICENTER":341.9423,"MEAN_ANOMALY":18.1382,"EPHEMERIS_TYPE":0,"CLASSIFICATION_TYPE":"U","NORAD_CAT_ID":21422,"ELEMENT_SET_NO":999,"REV_AT_EPOCH":86702,"BSTAR":0.00032423184,"MEAN_MOTION_DOT":4.086e-5,"MEAN_MOTION_DDOT":0},{"OBJECT_NAME":"SL-14 R/B","OBJECT_ID":"1991-042B","EPOCH":"2026-04-04T06:46:30.002016","MEAN_MOTION":14.81857651,"ECCENTRICITY":0.00177468,"INCLINATION":82.496,"RA_OF_ASC_NODE":196.1899,"ARG_OF_PERICENTER":152.7768,"MEAN_ANOMALY":207.4381,"EPHEMERIS_TYPE":0,"CLASSIFICATION_TYPE":"U","NORAD_CAT_ID":21423,"ELEMENT_SET_NO":999,"REV_AT_EPOCH":85686,"BSTAR":8.9225779e-5,"MEAN_MOTION_DOT":7.3e-6,"MEAN_MOTION_DDOT":0},{"OBJECT_NAME":"ERS-1","OBJECT_ID":"1991-050A","EPOCH":"2026-04-04T01:38:54.608640","MEAN_MOTION":14.39470557,"ECCENTRICITY":0.00329194,"INCLINATION":98.7859,"RA_OF_ASC_NODE":112.9393,"ARG_OF_PERICENTER":125.9575,"MEAN_ANOMALY":234.4673,"EPHEMERIS_TYPE":0,"CLASSIFICATION_TYPE":"U","NORAD_CAT_ID":21574,"ELEMENT_SET_NO":999,"REV_AT_EPOCH":81938,"BSTAR":0.00019020191,"MEAN_MOTION_DOT":5.5e-6,"MEAN_MOTION_DDOT":0},{"OBJECT_NAME":"ARIANE 40 R/B","OBJECT_ID":"1991-050F","EPOCH":"2026-04-04T03:05:12.238368","MEAN_MOTION":14.42913846,"ECCENTRICITY":0.00031703,"INCLINATION":98.1959,"RA_OF_ASC_NODE":145.4038,"ARG_OF_PERICENTER":21.9524,"MEAN_ANOMALY":338.1802,"EPHEMERIS_TYPE":0,"CLASSIFICATION_TYPE":"U","NORAD_CAT_ID":21610,"ELEMENT_SET_NO":999,"REV_AT_EPOCH":82266,"BSTAR":0.00016995923,"MEAN_MOTION_DOT":5.26e-6,"MEAN_MOTION_DDOT":0},{"OBJECT_NAME":"INTERCOSMOS 25","OBJECT_ID":"1991-086A","EPOCH":"2026-04-04T01:57:26.235360","MEAN_MOTION":12.12092405,"ECCENTRICITY":0.14863171,"INCLINATION":82.5999,"RA_OF_ASC_NODE":294.6558,"ARG_OF_PERICENTER":62.2249,"MEAN_ANOMALY":312.1518,"EPHEMERIS_TYPE":0,"CLASSIFICATION_TYPE":"U","NORAD_CAT_ID":21819,"ELEMENT_SET_NO":999,"REV_AT_EPOCH":49976,"BSTAR":0.00052880374,"MEAN_MOTION_DOT":2.725e-5,"MEAN_MOTION_DDOT":0},{"OBJECT_NAME":"SL-8 R/B","OBJECT_ID":"1992-008B","EPOCH":"2026-04-04T04:41:18.984768","MEAN_MOTION":13.75969837,"ECCENTRICITY":0.00357971,"INCLINATION":82.9242,"RA_OF_ASC_NODE":248.8002,"ARG_OF_PERICENTER":64.5745,"MEAN_ANOMALY":108.4023,"EPHEMERIS_TYPE":0,"CLASSIFICATION_TYPE":"U","NORAD_CAT_ID":21876,"ELEMENT_SET_NO":999,"REV_AT_EPOCH":71292,"BSTAR":3.321235e-6,"MEAN_MOTION_DOT":1.9e-7,"MEAN_MOTION_DDOT":0},{"OBJECT_NAME":"SL-8 R/B","OBJECT_ID":"1992-020B","EPOCH":"2026-04-04T05:24:34.179840","MEAN_MOTION":13.75550683,"ECCENTRICITY":0.00280398,"INCLINATION":82.9292,"RA_OF_ASC_NODE":134.8003,"ARG_OF_PERICENTER":224.3113,"MEAN_ANOMALY":205.3115,"EPHEMERIS_TYPE":0,"CLASSIFICATION_TYPE":"U","NORAD_CAT_ID":21938,"ELEMENT_SET_NO":999,"REV_AT_EPOCH":70464,"BSTAR":7.694677e-6,"MEAN_MOTION_DOT":2.2e-7,"MEAN_MOTION_DDOT":0},{"OBJECT_NAME":"USA 81","OBJECT_ID":"1992-023A","EPOCH":"2026-04-04T03:45:47.477664","MEAN_MOTION":14.32376841,"ECCENTRICITY":0.00015242,"INCLINATION":85.0039,"RA_OF_ASC_NODE":116.7425,"ARG_OF_PERICENTER":70.112,"MEAN_ANOMALY":290.0236,"EPHEMERIS_TYPE":0,"CLASSIFICATION_TYPE":"U","NORAD_CAT_ID":21949,"ELEMENT_SET_NO":999,"REV_AT_EPOCH":9843,"BSTAR":8.4394166e-5,"MEAN_MOTION_DOT":2.48e-6,"MEAN_MOTION_DDOT":0},{"OBJECT_NAME":"COSMOS 2219","OBJECT_ID":"1992-076A","EPOCH":"2026-04-04T01:22:42.839328","MEAN_MOTION":14.14088953,"ECCENTRICITY":0.00176734,"INCLINATION":71.0607,"RA_OF_ASC_NODE":325.0424,"ARG_OF_PERICENTER":168.6406,"MEAN_ANOMALY":191.5119,"EPHEMERIS_TYPE":0,"CLASSIFICATION_TYPE":"U","NORAD_CAT_ID":22219,"ELEMENT_SET_NO":999,"REV_AT_EPOCH":72196,"BSTAR":-5.5013952e-5,"MEAN_MOTION_DOT":-1.52e-6,"MEAN_MOTION_DDOT":0},{"OBJECT_NAME":"SL-16 R/B","OBJECT_ID":"1992-076B","EPOCH":"2026-04-04T06:08:37.772736","MEAN_MOTION":14.16862686,"ECCENTRICITY":0.0010919,"INCLINATION":70.9984,"RA_OF_ASC_NODE":134.5222,"ARG_OF_PERICENTER":49.3707,"MEAN_ANOMALY":23.7843,"EPHEMERIS_TYPE":0,"CLASSIFICATION_TYPE":"U","NORAD_CAT_ID":22220,"ELEMENT_SET_NO":999,"REV_AT_EPOCH":72545,"BSTAR":-3.6653468e-5,"MEAN_MOTION_DOT":-1.21e-6,"MEAN_MOTION_DDOT":0},{"OBJECT_NAME":"COSMOS 2221","OBJECT_ID":"1992-080A","EPOCH":"2026-04-04T04:24:39.021408","MEAN_MOTION":14.96320068,"ECCENTRICITY":0.00157,"INCLINATION":82.5013,"RA_OF_ASC_NODE":254.6522,"ARG_OF_PERICENTER":105.8399,"MEAN_ANOMALY":254.4555,"EPHEMERIS_TYPE":0,"CLASSIFICATION_TYPE":"U","NORAD_CAT_ID":22236,"ELEMENT_SET_NO":999,"REV_AT_EPOCH":78460,"BSTAR":0.00035869142,"MEAN_MOTION_DOT":4.09e-5,"MEAN_MOTION_DDOT":0},{"OBJECT_NAME":"SL-16 R/B","OBJECT_ID":"1992-093B","EPOCH":"2026-04-04T00:56:40.862112","MEAN_MOTION":14.15456262,"ECCENTRICITY":0.00066463,"INCLINATION":71.022,"RA_OF_ASC_NODE":311.0524,"ARG_OF_PERICENTER":269.4467,"MEAN_ANOMALY":90.5894,"EPHEMERIS_TYPE":0,"CLASSIFICATION_TYPE":"U","NORAD_CAT_ID":22285,"ELEMENT_SET_NO":999,"REV_AT_EPOCH":71674,"BSTAR":3.046493e-6,"MEAN_MOTION_DOT":-4.2e-7,"MEAN_MOTION_DDOT":0},{"OBJECT_NAME":"COSMOS 2228","OBJECT_ID":"1992-094A","EPOCH":"2026-04-04T05:59:50.734464","MEAN_MOTION":14.9733638,"ECCENTRICITY":0.00172221,"INCLINATION":82.52,"RA_OF_ASC_NODE":212.8379,"ARG_OF_PERICENTER":211.855,"MEAN_ANOMALY":148.1632,"EPHEMERIS_TYPE":0,"CLASSIFICATION_TYPE":"U","NORAD_CAT_ID":22286,"ELEMENT_SET_NO":999,"REV_AT_EPOCH":77988,"BSTAR":0.00039795884,"MEAN_MOTION_DOT":4.657e-5,"MEAN_MOTION_DDOT":0},{"OBJECT_NAME":"SL-16 R/B","OBJECT_ID":"1993-016B","EPOCH":"2026-04-04T07:03:53.806464","MEAN_MOTION":14.15308631,"ECCENTRICITY":0.00123883,"INCLINATION":71.0073,"RA_OF_ASC_NODE":161.4078,"ARG_OF_PERICENTER":281.3715,"MEAN_ANOMALY":78.6016,"EPHEMERIS_TYPE":0,"CLASSIFICATION_TYPE":"U","NORAD_CAT_ID":22566,"ELEMENT_SET_NO":999,"REV_AT_EPOCH":70579,"BSTAR":0.00020447978,"MEAN_MOTION_DOT":3.51e-6,"MEAN_MOTION_DDOT":0},{"OBJECT_NAME":"COSMOS 2242","OBJECT_ID":"1993-024A","EPOCH":"2026-04-03T21:48:50.335488","MEAN_MOTION":14.96671287,"ECCENTRICITY":0.00154972,"INCLINATION":82.5174,"RA_OF_ASC_NODE":242.5872,"ARG_OF_PERICENTER":216.6596,"MEAN_ANOMALY":143.3568,"EPHEMERIS_TYPE":0,"CLASSIFICATION_TYPE":"U","NORAD_CAT_ID":22626,"ELEMENT_SET_NO":999,"REV_AT_EPOCH":78416,"BSTAR":0.00035195187,"MEAN_MOTION_DOT":4.049e-5,"MEAN_MOTION_DDOT":0}]
