SL-8 R/B                
1 21088U 91006B   26094.26642028  .00000131  00000+0  11668-3 0  9995
2 21088  82.9435 151.0296 0021456 326.6148 101.4186 13.77498663767593
OKEAN-3                 
1 21397U 91039A   26094.07900911  .00005678  00000+0  39806-3 0  9996
2 21397  82.5148 312.2412 0012803 243.0253 116.9666 15.04965020868852
COSMOS 2151             
1 21422U 91042A   26094.22993784  .00004086  00000+0  32423-3 0  9996
2 21422  82.4960  59.0320 0011749 341.9423  18.1382 15.00225779867023
SL-14 R/B               
1 21423U 91042B   26094.28229169  .00000730  00000+0  89226-4 0  9998
2 21423  82.4960 196.1899 0017746 152.7768 207.4381 14.81857651856861
ERS-1                   
1 21574U 91050A   26094.06868760  .00000550  00000+0  19020-3 0  9990
2 21574  98.7859 112.9393 0032919 125.9575 234.4673 14.39470557819386
ARIANE 40 R/B           
1 21610U 91050F   26094.12861387  .00000526  00000+0  16996-3 0  9998
2 21610  98.1959 145.4038 0003170  21.9524 338.1802 14.42913846822663
INTERCOSMOS 25          
1 21819U 91086A   26094.08155365  .00002725  00000+0  52880-3 0  9990
2 21819  82.5999 294.6558 1486317  62.2249 312.1518 12.12092405499761
SL-8 R/B                
1 21876U 92008B   26094.19535862  .00000019  00000+0  33212-5 0  9998
2 21876  82.9242 248.8002 0035797  64.5745 108.4023 13.75969837712926
SL-8 R/B                
1 21938U 92020B   26094.22539560  .00000022  00000+0  76947-5 0  9990
2 21938  82.9292 134.8003 0028039 224.3113 205.3115 13.75550683704645
USA 81                  
1 21949U 92023A   26094.15679951  .00000248  00000+0  84394-4 0  9990
2 21949  85.0039 116.7425 0001524  70.1120 290.0236 14.32376841 98436
COSMOS 2219             
1 22219U 92076A   26094.05744027 -.00000152  00000+0 -55014-4 0  9998
2 22219  71.0607 325.0424 0017673 168.6406 191.5119 14.14088953721969
SL-16 R/B               
1 22220U 92076B   26094.25599274 -.00000121  00000+0 -36653-4 0  9998
2 22220  70.9984 134.5222 0010919  49.3707  23.7843 14.16862686725454
COSMOS 2221             
1 22236U 92080A   26094.18378497  .00004090  00000+0  35869-3 0  9998
2 22236  82.5013 254.6522 0015700 105.8399 254.4555 14.96320068784604
SL-16 R/B               
1 22285U 92093B   26094.03936183 -.00000042  00000+0  30465-5 0  9995
2 22285  71.0220 311.0524 0006646 269.4467  90.5894 14.15456262716745
COSMOS 2228             
1 22286U 92094A   26094.24989276  .00004657  00000+0  39796-3 0  9990
2 22286  82.5200 212.8379 0017222 211.8550 148.1632 14.97336380779885
SL-16 R/B               
1 22566U 93016B   26094.29437276  .00000351  00000+0  20448-3 0  9990
2 22566  71.0073 161.4078 0012388 281.3715  78.6016 14.15308631705795
COSMOS 2242             
1 22626U 93024A   26093.90891592  .00004049  00000+0  35195-3 0  9991
2 22626  82.5174 242.5872 0015497 216.6596 143.3568 14.96671287784165
